IRIDIUM 171             
1 43929U 19002H   24274.94239560  .00000534  00000+0  18348-3 0  9994
2 43929  86.3933 254.6418 0002600  88.8796 271.2697 14.34218602299482
IRIDIUM 170             
1 43930U 19002J   24274.94974586  .00001491  00000+0  23245-3 0  9995
2 43930  86.6051 254.4394 0002553  85.7893 274.3616 14.72261757307419
IRIDIUM 167             
1 43931U 19002K   24274.93604855  .00000191  00000+0  61305-4 0  9990
2 43931  86.3923 254.4243 0002447  90.1556 269.9920 14.34217986299484
IRIDIUM 181             
1 56726U 23068S   24274.53758882  .00001052  00000+0  30498-3 0  9994
2 56726  86.8622 313.4839 0002554  96.9794 263.1698 14.43581520 72334
IRIDIUM 177             
1 56727U 23068T   24274.88672264  .00001979  00000+0  25691-3 0  9999
2 56727  86.1919 265.1536 0002277 100.0293 260.1185 14.80233812 74011
IRIDIUM 174             
1 56728U 23068U   24274.94907652  .00001981  00000+0  25734-3 0  9990
2 56728  86.1924 265.2363 0002452  97.9022 262.2478 14.80217795 74027
IRIDIUM 178             
1 56729U 23068V   24274.53767892  .00001549  00000+0  20043-3 0  9994
2 56729  86.5725 287.9045 0002577  92.2055 267.9462 14.80239199 73960
IRIDIUM 179             
1 56730U 23068W   24274.80264538  .00001607  00000+0  20798-3 0  9997
2 56730  86.6737 293.2608 0002085 102.4237 257.7218 14.80246211 74006
