<?xml version="1.0" encoding="UTF-8"?>
<ndm xmlns:xsi="http://www.w3.org/2001/XMLSchema-instance" xsi:noNamespaceSchemaLocation="https://sanaregistry.org/r/ndmxml_unqualified/ndmxml-2.0.0-master-2.0.xsd">
<omm id="CCSDS_OMM_VERS" version="2.0">
<header><CREATION_DATE/><ORIGINATOR/></header><body><segment><metadata><OBJECT_NAME>IRIDIUM 171</OBJECT_NAME><OBJECT_ID>2019-002H</OBJECT_ID><CENTER_NAME>EARTH</CENTER_NAME><REF_FRAME>TEME</REF_FRAME><TIME_SYSTEM>UTC</TIME_SYSTEM><MEAN_ELEMENT_THEORY>SGP4</MEAN_ELEMENT_THEORY></metadata><data><meanElements><EPOCH>2024-09-30T22:37:02.979840</EPOCH><MEAN_MOTION>14.34218602</MEAN_MOTION><ECCENTRICITY>.00026</ECCENTRICITY><INCLINATION>86.3933</INCLINATION><RA_OF_ASC_NODE>254.6418</RA_OF_ASC_NODE><ARG_OF_PERICENTER>88.8796</ARG_OF_PERICENTER><MEAN_ANOMALY>271.2697</MEAN_ANOMALY></meanElements><tleParameters><EPHEMERIS_TYPE>0</EPHEMERIS_TYPE><CLASSIFICATION_TYPE>U</CLASSIFICATION_TYPE><NORAD_CAT_ID>43929</NORAD_CAT_ID><ELEMENT_SET_NO>999</ELEMENT_SET_NO><REV_AT_EPOCH>29948</REV_AT_EPOCH><BSTAR>.18348E-3</BSTAR><MEAN_MOTION_DOT>.534E-5</MEAN_MOTION_DOT><MEAN_MOTION_DDOT>0</MEAN_MOTION_DDOT></tleParameters></data></segment></body></omm>
<omm id="CCSDS_OMM_VERS" version="2.0">
<header><CREATION_DATE/><ORIGINATOR/></header><body><segment><metadata><OBJECT_NAME>IRIDIUM 170</OBJECT_NAME><OBJECT_ID>2019-002J</OBJECT_ID><CENTER_NAME>EARTH</CENTER_NAME><REF_FRAME>TEME</REF_FRAME><TIME_SYSTEM>UTC</TIME_SYSTEM><MEAN_ELEMENT_THEORY>SGP4</MEAN_ELEMENT_THEORY></metadata><data><meanElements><EPOCH>2024-09-30T22:47:38.042304</EPOCH><MEAN_MOTION>14.72261757</MEAN_MOTION><ECCENTRICITY>.0002553</ECCENTRICITY><INCLINATION>86.6051</INCLINATION><RA_OF_ASC_NODE>254.4394</RA_OF_ASC_NODE><ARG_OF_PERICENTER>85.7893</ARG_OF_PERICENTER><MEAN_ANOMALY>274.3616</MEAN_ANOMALY></meanElements><tleParameters><EPHEMERIS_TYPE>0</EPHEMERIS_TYPE><CLASSIFICATION_TYPE>U</CLASSIFICATION_TYPE><NORAD_CAT_ID>43930</NORAD_CAT_ID><ELEMENT_SET_NO>999</ELEMENT_SET_NO><REV_AT_EPOCH>30741</REV_AT_EPOCH><BSTAR>.23245E-3</BSTAR><MEAN_MOTION_DOT>.1491E-4</MEAN_MOTION_DOT><MEAN_MOTION_DDOT>0</MEAN_MOTION_DDOT></tleParameters></data></segment></body></omm>
<omm id="CCSDS_OMM_VERS" version="2.0">
<header><CREATION_DATE/><ORIGINATOR/></header><body><segment><metadata><OBJECT_NAME>IRIDIUM 167</OBJECT_NAME><OBJECT_ID>2019-002K</OBJECT_ID><CENTER_NAME>EARTH</CENTER_NAME><REF_FRAME>TEME</REF_FRAME><TIME_SYSTEM>UTC</TIME_SYSTEM><MEAN_ELEMENT_THEORY>SGP4</MEAN_ELEMENT_THEORY></metadata><data><meanElements><EPOCH>2024-09-30T22:27:54.594720</EPOCH><MEAN_MOTION>14.34217986</MEAN_MOTION><ECCENTRICITY>.0002447</ECCENTRICITY><INCLINATION>86.3923</INCLINATION><RA_OF_ASC_NODE>254.4243</RA_OF_ASC_NODE><ARG_OF_PERICENTER>90.1556</ARG_OF_PERICENTER><MEAN_ANOMALY>269.9920</MEAN_ANOMALY></meanElements><tleParameters><EPHEMERIS_TYPE>0</EPHEMERIS_TYPE><CLASSIFICATION_TYPE>U</CLASSIFICATION_TYPE><NORAD_CAT_ID>43931</NORAD_CAT_ID><ELEMENT_SET_NO>999</ELEMENT_SET_NO><REV_AT_EPOCH>29948</REV_AT_EPOCH><BSTAR>.61305E-4</BSTAR><MEAN_MOTION_DOT>.191E-5</MEAN_MOTION_DOT><MEAN_MOTION_DDOT>0</MEAN_MOTION_DDOT></tleParameters></data></segment></body></omm>
<omm id="CCSDS_OMM_VERS" version="2.0">
<header><CREATION_DATE/><ORIGINATOR/></header><body><segment><metadata><OBJECT_NAME>IRIDIUM 181</OBJECT_NAME><OBJECT_ID>2023-068S</OBJECT_ID><CENTER_NAME>EARTH</CENTER_NAME><REF_FRAME>TEME</REF_FRAME><TIME_SYSTEM>UTC</TIME_SYSTEM><MEAN_ELEMENT_THEORY>SGP4</MEAN_ELEMENT_THEORY></metadata><data><meanElements><EPOCH>2024-09-30T12:54:07.674048</EPOCH><MEAN_MOTION>14.43581520</MEAN_MOTION><ECCENTRICITY>.0002554</ECCENTRICITY><INCLINATION>86.8622</INCLINATION><RA_OF_ASC_NODE>313.4839</RA_OF_ASC_NODE><ARG_OF_PERICENTER>96.9794</ARG_OF_PERICENTER><MEAN_ANOMALY>263.1698</MEAN_ANOMALY></meanElements><tleParameters><EPHEMERIS_TYPE>0</EPHEMERIS_TYPE><CLASSIFICATION_TYPE>U</CLASSIFICATION_TYPE><NORAD_CAT_ID>56726</NORAD_CAT_ID><ELEMENT_SET_NO>999</ELEMENT_SET_NO><REV_AT_EPOCH>7233</REV_AT_EPOCH><BSTAR>.30498E-3</BSTAR><MEAN_MOTION_DOT>.1052E-4</MEAN_MOTION_DOT><MEAN_MOTION_DDOT>0</MEAN_MOTION_DDOT></tleParameters></data></segment></body></omm>
<omm id="CCSDS_OMM_VERS" version="2.0">
<header><CREATION_DATE/><ORIGINATOR/></header><body><segment><metadata><OBJECT_NAME>IRIDIUM 177</OBJECT_NAME><OBJECT_ID>2023-068T</OBJECT_ID><CENTER_NAME>EARTH</CENTER_NAME><REF_FRAME>TEME</REF_FRAME><TIME_SYSTEM>UTC</TIME_SYSTEM><MEAN_ELEMENT_THEORY>SGP4</MEAN_ELEMENT_THEORY></metadata><data><meanElements><EPOCH>2024-09-30T21:16:52.836096</EPOCH><MEAN_MOTION>14.80233812</MEAN_MOTION><ECCENTRICITY>.0002277</ECCENTRICITY><INCLINATION>86.1919</INCLINATION><RA_OF_ASC_NODE>265.1536</RA_OF_ASC_NODE><ARG_OF_PERICENTER>100.0293</ARG_OF_PERICENTER><MEAN_ANOMALY>260.1185</MEAN_ANOMALY></meanElements><tleParameters><EPHEMERIS_TYPE>0</EPHEMERIS_TYPE><CLASSIFICATION_TYPE>U</CLASSIFICATION_TYPE><NORAD_CAT_ID>56727</NORAD_CAT_ID><ELEMENT_SET_NO>999</ELEMENT_SET_NO><REV_AT_EPOCH>7401</REV_AT_EPOCH><BSTAR>.25691E-3</BSTAR><MEAN_MOTION_DOT>.1979E-4</MEAN_MOTION_DOT><MEAN_MOTION_DDOT>0</MEAN_MOTION_DDOT></tleParameters></data></segment></body></omm>
<omm id="CCSDS_OMM_VERS" version="2.0">
<header><CREATION_DATE/><ORIGINATOR/></header><body><segment><metadata><OBJECT_NAME>IRIDIUM 174</OBJECT_NAME><OBJECT_ID>2023-068U</OBJECT_ID><CENTER_NAME>EARTH</CENTER_NAME><REF_FRAME>TEME</REF_FRAME><TIME_SYSTEM>UTC</TIME_SYSTEM><MEAN_ELEMENT_THEORY>SGP4</MEAN_ELEMENT_THEORY></metadata><data><meanElements><EPOCH>2024-09-30T22:46:40.211328</EPOCH><MEAN_MOTION>14.80217795</MEAN_MOTION><ECCENTRICITY>.0002452</ECCENTRICITY><INCLINATION>86.1924</INCLINATION><RA_OF_ASC_NODE>265.2363</RA_OF_ASC_NODE><ARG_OF_PERICENTER>97.9022</ARG_OF_PERICENTER><MEAN_ANOMALY>262.2478</MEAN_ANOMALY></meanElements><tleParameters><EPHEMERIS_TYPE>0</EPHEMERIS_TYPE><CLASSIFICATION_TYPE>U</CLASSIFICATION_TYPE><NORAD_CAT_ID>56728</NORAD_CAT_ID><ELEMENT_SET_NO>999</ELEMENT_SET_NO><REV_AT_EPOCH>7402</REV_AT_EPOCH><BSTAR>.25734E-3</BSTAR><MEAN_MOTION_DOT>.1981E-4</MEAN_MOTION_DOT><MEAN_MOTION_DDOT>0</MEAN_MOTION_DDOT></tleParameters></data></segment></body></omm>
<omm id="CCSDS_OMM_VERS" version="2.0">
<header><CREATION_DATE/><ORIGINATOR/></header><body><segment><metadata><OBJECT_NAME>IRIDIUM 178</OBJECT_NAME><OBJECT_ID>2023-068V</OBJECT_ID><CENTER_NAME>EARTH</CENTER_NAME><REF_FRAME>TEME</REF_FRAME><TIME_SYSTEM>UTC</TIME_SYSTEM><MEAN_ELEMENT_THEORY>SGP4</MEAN_ELEMENT_THEORY></metadata><data><meanElements><EPOCH>2024-09-30T12:54:15.458688</EPOCH><MEAN_MOTION>14.80239199</MEAN_MOTION><ECCENTRICITY>.0002577</ECCENTRICITY><INCLINATION>86.5725</INCLINATION><RA_OF_ASC_NODE>287.9045</RA_OF_ASC_NODE><ARG_OF_PERICENTER>92.2055</ARG_OF_PERICENTER><MEAN_ANOMALY>267.9462</MEAN_ANOMALY></meanElements><tleParameters><EPHEMERIS_TYPE>0</EPHEMERIS_TYPE><CLASSIFICATION_TYPE>U</CLASSIFICATION_TYPE><NORAD_CAT_ID>56729</NORAD_CAT_ID><ELEMENT_SET_NO>999</ELEMENT_SET_NO><REV_AT_EPOCH>7396</REV_AT_EPOCH><BSTAR>.20043E-3</BSTAR><MEAN_MOTION_DOT>.1549E-4</MEAN_MOTION_DOT><MEAN_MOTION_DDOT>0</MEAN_MOTION_DDOT></tleParameters></data></segment></body></omm>
<omm id="CCSDS_OMM_VERS" version="2.0">
<header><CREATION_DATE/><ORIGINATOR/></header><body><segment><metadata><OBJECT_NAME>IRIDIUM 179</OBJECT_NAME><OBJECT_ID>2023-068W</OBJECT_ID><CENTER_NAME>EARTH</CENTER_NAME><REF_FRAME>TEME</REF_FRAME><TIME_SYSTEM>UTC</TIME_SYSTEM><MEAN_ELEMENT_THEORY>SGP4</MEAN_ELEMENT_THEORY></metadata><data><meanElements><EPOCH>2024-09-30T19:15:48.560832</EPOCH><MEAN_MOTION>14.80246211</MEAN_MOTION><ECCENTRICITY>.0002085</ECCENTRICITY><INCLINATION>86.6737</INCLINATION><RA_OF_ASC_NODE>293.2608</RA_OF_ASC_NODE><ARG_OF_PERICENTER>102.4237</ARG_OF_PERICENTER><MEAN_ANOMALY>257.7218</MEAN_ANOMALY></meanElements><tleParameters><EPHEMERIS_TYPE>0</EPHEMERIS_TYPE><CLASSIFICATION_TYPE>U</CLASSIFICATION_TYPE><NORAD_CAT_ID>56730</NORAD_CAT_ID><ELEMENT_SET_NO>999</ELEMENT_SET_NO><REV_AT_EPOCH>7400</REV_AT_EPOCH><BSTAR>.20798E-3</BSTAR><MEAN_MOTION_DOT>.1607E-4</MEAN_MOTION_DOT><MEAN_MOTION_DDOT>0</MEAN_MOTION_DDOT></tleParameters></data></segment></body></omm>
</ndm>
